[
    {
        "Altitude(m)": 703239.5263500457,
        "Argument of Periapsis(deg)": 0.0022780242373254137,
        "Eccentricity": 0.0,
        "Inclination(deg)": 45.0,
        "Latitude(deg)": 1.5810895163578556,
        "Longitude(deg)": -78.55690124655698,
        "Mean Anomaly(deg)": 2.3066433294961666,
        "RAAN(deg)": 19.997849611708357,
        "Satellite Name": "Constellation 1 88",
        "Satellite Number": 88,
        "Semi-Major Axis(m)": 7083131.272910544,
        "Time(s)": 38
    },
    {
        "Altitude(m)": 703234.6899185233,
        "Argument of Periapsis(deg)": 0.002337972243570819,
        "Eccentricity": 0.0,
        "Inclination(deg)": 45.0,
        "Latitude(deg)": 1.6242907351213884,
        "Longitude(deg)": -78.51811657080312,
        "Mean Anomaly(deg)": 2.3673444697460626,
        "RAAN(deg)": 19.99779302254279,
        "Satellite Name": "Constellation 1 88",
        "Satellite Number": 88,
        "Semi-Major Axis(m)": 7083131.272910544,
        "Time(s)": 39
    },
    {
        "Altitude(m)": 703229.8743173635,
        "Argument of Periapsis(deg)": 0.0023979202498162246,
        "Eccentricity": 0.0,
        "Inclination(deg)": 45.0,
        "Latitude(deg)": 1.6674910843440178,
        "Longitude(deg)": -78.47933001024448,
        "Mean Anomaly(deg)": 2.428045609995965,
        "RAAN(deg)": 19.99773643337722,
        "Satellite Name": "Constellation 1 88",
        "Satellite Number": 88,
        "Semi-Major Axis(m)": 7083131.272910544,
        "Time(s)": 40
    },
    {
        "Altitude(m)": 703225.0795494006,
        "Argument of Periapsis(deg)": 0.00245786825606163,
        "Eccentricity": 0.0,
        "Inclination(deg)": 45.0,
        "Latitude(deg)": 1.710690539011368,
        "Longitude(deg)": -78.44054151648987,
        "Mean Anomaly(deg)": 2.488746750245861,
        "RAAN(deg)": 19.99767984421165,
        "Satellite Name": "Constellation 1 88",
        "Satellite Number": 88,
        "Semi-Major Axis(m)": 7083131.272910544,
        "Time(s)": 41
    },
    {
        "Altitude(m)": 703220.3056173697,
        "Argument of Periapsis(deg)": 0.002517816262307036,
        "Eccentricity": 0.0,
        "Inclination(deg)": 45.0,
        "Latitude(deg)": 1.7538890741052593,
        "Longitude(deg)": -78.40175104114361,
        "Mean Anomaly(deg)": 2.5494478904957636,
        "RAAN(deg)": 19.997623255046083,
        "Satellite Name": "Constellation 1 88",
        "Satellite Number": 88,
        "Semi-Major Axis(m)": 7083131.272910544,
        "Time(s)": 42
    },
    {
        "Altitude(m)": 703215.5525239245,
        "Argument of Periapsis(deg)": 0.0025777642685524413,
        "Eccentricity": 0.0,
        "Inclination(deg)": 45.0,
        "Latitude(deg)": 1.7970866646035684,
        "Longitude(deg)": -78.3629585358053,
        "Mean Anomaly(deg)": 2.610149030745659,
        "RAAN(deg)": 19.997566665880512,
        "Satellite Name": "Constellation 1 88",
        "Satellite Number": 88,
        "Semi-Major Axis(m)": 7083131.272910544,
        "Time(s)": 43
    },
    {
        "Altitude(m)": 703210.8202716141,
        "Argument of Periapsis(deg)": 0.002637712274797847,
        "Eccentricity": 0.0,
        "Inclination(deg)": 45.0,
        "Latitude(deg)": 1.840283285480171,
        "Longitude(deg)": -78.32416412016691,
        "Mean Anomaly(deg)": 2.6708501709955588,
        "RAAN(deg)": 19.997510076714942,
        "Satellite Name": "Constellation 1 88",
        "Satellite Number": 88,
        "Semi-Major Axis(m)": 7083131.272910544,
        "Time(s)": 44
    },
    {
        "Altitude(m)": 703206.1088628978,
        "Argument of Periapsis(deg)": 0.0026976602810432526,
        "Eccentricity": 0.0,
        "Inclination(deg)": 45.0,
        "Latitude(deg)": 1.8834789117049062,
        "Longitude(deg)": -78.28536740962433,
        "Mean Anomaly(deg)": 2.731551311245458,
        "RAAN(deg)": 19.99745348754937,
        "Satellite Name": "Constellation 1 88",
        "Satellite Number": 88,
        "Semi-Major Axis(m)": 7083131.272910544,
        "Time(s)": 45
    },
    {
        "Altitude(m)": 703201.4183001438,
        "Argument of Periapsis(deg)": 0.0027576082872886585,
        "Eccentricity": 0.0,
        "Inclination(deg)": 45.0,
        "Latitude(deg)": 1.9266735182433574,
        "Longitude(deg)": -78.2465685238596,
        "Mean Anomaly(deg)": 2.792252451495357,
        "RAAN(deg)": 19.9973968983838,
        "Satellite Name": "Constellation 1 88",
        "Satellite Number": 88,
        "Semi-Major Axis(m)": 7083131.272910544,
        "Time(s)": 46
    },
    {
        "Altitude(m)": 703196.7485856207,
        "Argument of Periapsis(deg)": 0.0028175562935340644,
        "Eccentricity": 0.0,
        "Inclination(deg)": 45.0,
        "Latitude(deg)": 1.9698670800568474,
        "Longitude(deg)": -78.20776741445265,
        "Mean Anomaly(deg)": 2.8529535917452566,
        "RAAN(deg)": 19.997340309218234,
        "Satellite Name": "Constellation 1 88",
        "Satellite Number": 88,
        "Semi-Major Axis(m)": 7083131.272910544,
        "Time(s)": 47
    },
    {
        "Altitude(m)": 703192.0997215081,
        "Argument of Periapsis(deg)": 0.00287750429977947,
        "Eccentricity": 0.0,
        "Inclination(deg)": 45.0,
        "Latitude(deg)": 2.0130595721023354,
        "Longitude(deg)": -78.16896403297817,
        "Mean Anomaly(deg)": 2.9136547319951553,
        "RAAN(deg)": 19.997283720052664,
        "Satellite Name": "Constellation 1 88",
        "Satellite Number": 88,
        "Semi-Major Axis(m)": 7083131.272910544,
        "Time(s)": 48
    },
    {
        "Altitude(m)": 703187.4717098939,
        "Argument of Periapsis(deg)": 0.002937452306024875,
        "Eccentricity": 0.0,
        "Inclination(deg)": 45.0,
        "Latitude(deg)": 2.0562509693323126,
        "Longitude(deg)": -78.13015833100555,
        "Mean Anomaly(deg)": 2.9743558722450545,
        "RAAN(deg)": 19.997227130887094,
        "Satellite Name": "Constellation 1 88",
        "Satellite Number": 88,
        "Semi-Major Axis(m)": 7083131.272910544,
        "Time(s)": 49
    },
    {
        "Altitude(m)": 703182.8645527649,
        "Argument of Periapsis(deg)": 0.0029974003122702807,
        "Eccentricity": 0.0,
        "Inclination(deg)": 45.0,
        "Latitude(deg)": 2.099441246694726,
        "Longitude(deg)": -78.09135026009878,
        "Mean Anomaly(deg)": 3.0350570124949536,
        "RAAN(deg)": 19.997170541721523,
        "Satellite Name": "Constellation 1 88",
        "Satellite Number": 88,
        "Semi-Major Axis(m)": 7083131.272910544,
        "Time(s)": 50
    },
    {
        "Altitude(m)": 703178.2782520173,
        "Argument of Periapsis(deg)": 0.0030573483185156866,
        "Eccentricity": 0.0,
        "Inclination(deg)": 45.0,
        "Latitude(deg)": 2.1426303791328736,
        "Longitude(deg)": -78.05253977181634,
        "Mean Anomaly(deg)": 3.09575815274485,
        "RAAN(deg)": 19.997113952555956,
        "Satellite Name": "Constellation 1 88",
        "Satellite Number": 88,
        "Semi-Major Axis(m)": 7083131.272910544,
        "Time(s)": 51
    },
    {
        "Altitude(m)": 703173.7128094606,
        "Argument of Periapsis(deg)": 0.003117296324761092,
        "Eccentricity": 0.0,
        "Inclination(deg)": 45.0,
        "Latitude(deg)": 2.1858183415852976,
        "Longitude(deg)": -78.01372698580803,
        "Mean Anomaly(deg)": 3.156459292994752,
        "RAAN(deg)": 19.997057363390386,
        "Satellite Name": "Constellation 1 88",
        "Satellite Number": 88,
        "Semi-Major Axis(m)": 7083131.272910544,
        "Time(s)": 52
    },
    {
        "Altitude(m)": 703169.1682268014,
        "Argument of Periapsis(deg)": 0.0031772443310064975,
        "Eccentricity": 0.0,
        "Inclination(deg)": 45.0,
        "Latitude(deg)": 2.22900510898579,
        "Longitude(deg)": -77.97491151742692,
        "Mean Anomaly(deg)": 3.217160433244648,
        "RAAN(deg)": 19.997000774224816,
        "Satellite Name": "Constellation 1 88",
        "Satellite Number": 88,
        "Semi-Major Axis(m)": 7083131.272910544,
        "Time(s)": 53
    },
    {
        "Altitude(m)": 703164.6445056616,
        "Argument of Periapsis(deg)": 0.0032371923372519038,
        "Eccentricity": 0.0,
        "Inclination(deg)": 45.0,
        "Latitude(deg)": 2.2721906562631453,
        "Longitude(deg)": -77.93609348631128,
        "Mean Anomaly(deg)": 3.2778615734945507,
        "RAAN(deg)": 19.99694418505925,
        "Satellite Name": "Constellation 1 88",
        "Satellite Number": 88,
        "Semi-Major Axis(m)": 7083131.272910544,
        "Time(s)": 54
    },
    {
        "Altitude(m)": 703160.1416475577,
        "Argument of Periapsis(deg)": 0.0032971403434973088,
        "Eccentricity": 0.0,
        "Inclination(deg)": 45.0,
        "Latitude(deg)": 2.315374958341179,
        "Longitude(deg)": -77.89727284399633,
        "Mean Anomaly(deg)": 3.3385627137444467,
        "RAAN(deg)": 19.996887595893675,
        "Satellite Name": "Constellation 1 88",
        "Satellite Number": 88,
        "Semi-Major Axis(m)": 7083131.272910544,
        "Time(s)": 55
    },
    {
        "Altitude(m)": 703155.6596539252,
        "Argument of Periapsis(deg)": 0.0033570883497427146,
        "Eccentricity": 0.0,
        "Inclination(deg)": 45.0,
        "Latitude(deg)": 2.3585579901386047,
        "Longitude(deg)": -77.85844954201139,
        "Mean Anomaly(deg)": 3.3992638539943494,
        "RAAN(deg)": 19.996831006728108,
        "Satellite Name": "Constellation 1 88",
        "Satellite Number": 88,
        "Semi-Major Axis(m)": 7083131.272910544,
        "Time(s)": 56
    }
]